ONEWEB-0029             
1 45445U 20020X   25345.63211561 -.00000306  00000+0 -89902-3 0  9991
2 45445  87.8870  58.4106 0001874 103.4341 256.6996 13.11418903278070
ONEWEB-0068             
1 45446U 20020Y   25345.61587658 -.00000487  00000+0 -14089-2 0  9996
2 45446  87.8867  58.4032 0001908 103.9832 256.1508 13.11417014278013
ONEWEB-0046             
1 45447U 20020Z   25343.16592577  .00011790  00000+0  33142-1 0  9998
2 45447  87.8864  58.8989 0002304  89.7730 270.3662 13.11512698277703
ONEWEB-0063             
1 45448U 20020AA  25345.48377475 -.00000358  00000+0 -10462-2 0  9995
2 45448  87.8876  58.4349 0001648 112.3751 247.7552 13.11413196278091
ONEWEB-0019             
1 45449U 20020AB  25345.60644385 -.00000162  00000+0 -48792-3 0  9998
2 45449  87.8856  58.4184 0001747  99.0628 261.0698 13.11989335277958
ONEWEB-0094             
1 45450U 20020AC  25345.56465030 -.00000329  00000+0 -88057-3 0  9996
2 45450  87.9124  43.1419 0001870  97.6686 262.4658 13.17649580281605
ONEWEB-0087             
1 45451U 20020AD  25345.26491448  .00000303  00000+0  81943-3 0  9993
2 45451  87.8880  58.4368 0001985 102.9174 257.2176 13.11416698277951
ONEWEB-0082             
1 45452U 20020AE  25345.49054013  .00000195  00000+0  51424-3 0  9992
2 45452  87.8879  58.4171 0001948 102.4273 257.7073 13.11420344278074
ONEWEB-0050             
1 45453U 20020AF  25345.29654856  .00006575  00000+0  68799-3 0  9993
2 45453  88.9235 258.8400 0001443 354.6090   5.5123 14.89532652312405
ONEWEB-0034             
1 45454U 20020AG  25345.43544912  .00000510  00000+0  14043-2 0  9996
2 45454  87.8864  58.4424 0001720 102.1597 257.9724 13.11415266277986
ONEWEB-0060             
1 45455U 20020AH  25345.48291365 -.00000126  00000+0 -39005-3 0  9994
2 45455  87.8857  58.4504 0002808  99.5333 260.6113 13.11419447277947
ONEWEB-0086             
1 45456U 20020AJ  25345.61431712 -.00000407  00000+0 -11831-2 0  9990
2 45456  87.8863  58.4035 0002243  86.6286 273.5098 13.11416240278024
ONEWEB-0088             
1 45457U 20020AK  25345.28707640  .00000405  00000+0  11068-2 0  9998
2 45457  87.8876  58.4240 0001805 113.0546 247.0772 13.11410585277912
ONEWEB-0102             
1 47258U 20100A   25345.36262776  .00001484  00000+0  40892-2 0  9998
2 47258  87.8938  27.9970 0001571  94.1999 265.9309 13.12455052240097
ONEWEB-0109             
1 47259U 20100B   25345.59944596  .00001313  00000+0  36130-2 0  9992
2 47259  87.8935  27.9186 0001883  94.4193 265.7151 13.12455131239953
ONEWEB-0110             
1 47260U 20100C   25345.39671216 -.00000119  00000+0 -36639-3 0  9998
2 47260  87.8943  27.9424 0001962  92.1942 267.9411 13.12444846240095
ONEWEB-0111             
1 47261U 20100D   25345.50377052  .00000327  00000+0  87230-3 0  9995
2 47261  87.8945  27.9394 0001717  96.3219 263.8105 13.12443174239945
ONEWEB-0114             
1 47262U 20100E   25345.15339386 -.00000401  00000+0 -11514-2 0  9991
2 47262  87.8950  28.0044 0001400  96.0372 264.0916 13.12439575239855
ONEWEB-0117             
1 47263U 20100F   25345.52645332  .00000450  00000+0  12142-2 0  9994
2 47263  87.8944  27.9271 0001953  97.0326 263.1025 13.12449861239919
ONEWEB-0118             
1 47264U 20100G   25345.55894466 -.00003321  00000+0 -92746-2 0  9992
2 47264  87.8946  27.9199 0001161 102.5956 257.5303 13.12417131240118
ONEWEB-0119             
1 47265U 20100H   25345.35775266  .00002136  00000+0  58988-2 0  9998
2 47265  87.8938  27.9947 0001667  96.1602 263.9717 13.12459562240066
ONEWEB-0120             
1 47266U 20100J   25345.53309451 -.00000189  00000+0 -56106-3 0  9997
2 47266  87.8937  27.9612 0001690  97.0457 263.0864 13.12445603240110
ONEWEB-0121             
1 47267U 20100K   25345.59782392  .00000807  00000+0  22083-2 0  9994
2 47267  87.8942  27.9164 0001986  94.7278 265.4077 13.12451503240031
ONEWEB-0122             
1 47268U 20100L   25345.59281559  .00002103  00000+0  58084-2 0  9995
2 47268  87.8951  27.9215 0001926  90.0999 270.0351 13.12460816239944
ONEWEB-0123             
1 47269U 20100M   25345.35939986  .00001144  00000+0  31428-2 0  9991
2 47269  87.8942  27.9933 0001765 102.2670 257.8656 13.12450824240058
ONEWEB-0124             
1 47270U 20100N   25345.50052731 -.00000101  00000+0 -31702-3 0  9994
2 47270  87.8934  27.9690 0001887  99.5726 260.5616 13.12440331239952
ONEWEB-0125             
1 47271U 20100P   25345.55406276 -.00002582  00000+0 -72162-2 0  9996
2 47271  87.8950  27.9222 0001453 112.4134 247.7148 13.12424841240024
ONEWEB-0126             
1 47272U 20100Q   25345.42280621  .00000326  00000+0  87066-3 0  9999
2 47272  87.8946  27.9711 0001586  95.3650 264.7660 13.12443293240077
ONEWEB-0127             
1 47273U 20100R   25345.38859891 -.00000692  00000+0 -19593-2 0  9993
2 47273  87.8943  27.9879 0001637  93.7174 266.4142 13.12442036240090
ONEWEB-0128             
1 47274U 20100S   25345.56376718  .00001381  00000+0  38017-2 0  9992
2 47274  87.8930  27.9699 0001926  90.0016 270.1333 13.12453896240138
ONEWEB-0129             
1 47275U 20100T   25345.39020885 -.00000888  00000+0 -25028-2 0  9996
2 47275  87.8955  27.9586 0000872  57.1653 302.9560 13.12439936240046
ONEWEB-0130             
1 47276U 20100U   25345.57026875  .00000853  00000+0  23346-2 0  9993
2 47276  87.8945  27.9175 0001719  93.4904 266.6421 13.12448711240035
ONEWEB-0131             
1 47277U 20100V   25345.49078784  .00000748  00000+0  20439-2 0  9994
2 47277  87.8944  27.9634 0001804  97.3813 262.7521 13.12447926240060
ONEWEB-0132             
1 47278U 20100W   25345.36749395  .00001072  00000+0  29443-2 0  9999
2 47278  87.8947  27.9901 0001736  96.5277 263.6049 13.12453468239948
ONEWEB-0133             
1 47279U 20100X   25345.38359430 -.00001389  00000+0 -38960-2 0  9996
2 47279  87.8944  27.9485 0001898  95.0079 265.1266 13.12435674240103
ONEWEB-0134             
1 47280U 20100Y   25345.58162621  .00000215  00000+0  56109-3 0  9995
2 47280  87.8945  27.9040 0001759  88.5003 271.6327 13.12443097240101
ONEWEB-0135             
1 47281U 20100Z   25345.55244858 -.00000107  00000+0 -33383-3 0  9997
2 47281  87.8997  27.9492 0001380  66.8110 293.3164 13.12416875240124
ONEWEB-0136             
1 47282U 20100AA  25345.57189519  .00000485  00000+0  13116-2 0  9990
2 47282  87.8945  27.9150 0001770  84.0811 276.0519 13.12444416240058
ONEWEB-0137             
1 47283U 20100AB  25345.37722938 -.00000382  00000+0 -10962-2 0  9991
2 47283  87.8944  27.9593 0001602 101.4350 258.6959 13.12444074239934
ONEWEB-0138             
1 47284U 20100AC  25345.58485147  .00002738  00000+0  75712-2 0  9992
2 47284  87.8993  27.9284 0002658  93.6300 266.5132 13.12462459240047
ONEWEB-0139             
1 47285U 20100AD  25345.39525196 -.00003926  00000+0 -10958-1 0  9993
2 47285  87.8964  27.9570 0001475  99.8613 260.2682 13.12416433240092
ONEWEB-0140             
1 47286U 20100AE  25345.19720446  .00000413  00000+0  11137-2 0  9994
2 47286  87.8946  27.9803 0001756  93.0029 267.1300 13.12443577240037
ONEWEB-0141             
1 47287U 20100AF  25345.54744351 -.00003190  00000+0 -89095-2 0  9990
2 47287  87.8937  27.9198 0001498 107.3719 252.7573 13.12420880240060
ONEWEB-0142             
1 47288U 20100AG  25345.15517563 -.00001086  00000+0 -30549-2 0  9993
2 47288  87.8949  28.0213 0001266  99.8020 260.3252 13.12426740240001
ONEWEB-0143             
1 47289U 20100AH  25345.16474261 -.00000186  00000+0 -55177-3 0  9997
2 47289  87.8943  28.0146 0001763  99.3432 260.7895 13.12444013239980
ONEWEB-0144             
1 47290U 20100AJ  25345.36588609  .00001167  00000+0  32072-2 0  9999
2 47290  87.8941  27.9439 0001529  88.6163 271.5141 13.12452944239936
ONEWEB-0145             
1 47291U 20100AK  25345.56539985  .00001294  00000+0  35609-2 0  9995
2 47291  87.8940  27.9419 0001737  96.4822 263.6504 13.12452248240152
ONEWEB-0146             
1 47292U 20100AL  25345.56216144  .00000187  00000+0  48558-3 0  9993
2 47292  87.8944  27.9293 0002095 100.6652 259.4713 13.12445083240068
ONEWEB-0147             
1 47293U 20100AM  25345.52808367 -.00000311  00000+0 -89854-3 0  9999
2 47293  87.8941  27.9138 0001823  88.9517 271.1821 13.12444146239956
ONEWEB-0115             
1 48042U 21025A   25345.47412172  .00000111  00000+0  26794-3 0  9998
2 48042  87.8988 357.5243 0001777  92.8538 267.2794 13.13471888228951
ONEWEB-0152             
1 48043U 21025B   25345.48767179  .00000326  00000+0  85857-3 0  9993
2 48043  87.8976 357.5289 0001869  92.3529 267.7814 13.13471050228911
ONEWEB-0153             
1 48044U 21025C   25345.46566042 -.00000089  00000+0 -27990-3 0  9990
2 48044  87.8983 357.5383 0001700  92.3781 267.7543 13.13471349228908
ONEWEB-0154             
1 48045U 21025D   25345.46227017 -.00000170  00000+0 -50174-3 0  9998
2 48045  87.8985 357.5355 0001798  89.7716 270.3619 13.13471624228860
ONEWEB-0116             
1 48046U 21025E   25345.50120523  .00000226  00000+0  58503-3 0  9992
2 48046  87.8990 357.5123 0001889  92.8798 267.2547 13.13471284229011
ONEWEB-0150             
1 48047U 21025F   25345.47750152  .00000201  00000+0  51640-3 0  9994
2 48047  87.8989 357.5126 0001620  97.6793 262.4521 13.13471916228902
ONEWEB-0107             
1 48048U 21025G   25345.47920442  .00000269  00000+0  70112-3 0  9995
2 48048  87.8988 357.5089 0001503  88.1061 272.0241 13.13471453228882
ONEWEB-0101             
1 48049U 21025H   25345.44194830 -.00000140  00000+0 -41817-3 0  9997
2 48049  87.8983 357.5498 0001721  86.7008 273.4318 13.13471241228851
ONEWEB-0113             
1 48050U 21025J   25345.45877171 -.00000202  00000+0 -58491-3 0  9991
2 48050  87.8987 357.4753 0001872  98.5714 261.5627 13.13985129228959
ONEWEB-0112             
1 48051U 21025K   25345.48427782  .00000339  00000+0  89277-3 0  9999
2 48051  87.8986 357.5050 0001665  93.8139 266.3181 13.13471665228952
